{
  "type": "FeatureCollection",
  "features": [
    {
      "type": "Feature",
      "properties": {
        "norad_id": 66611,
        "name": "STARLINK-35583",
        "group": "last-30-days",
        "lat": 31.29525543610335,
        "lon": -10.818093119963542,
        "alt_km": 399.1017290535192,
        "timestamp": "2025-12-09T18:55:16.023198+00:00",
        "meta_object_name": "STARLINK-35583",
        "meta_object_id": "2025-270Z",
        "meta_epoch": "2025-12-09T14:00:01.999872",
        "meta_mean_motion": 15.55507426,
        "meta_eccentricity": 0.00016859,
        "meta_inclination": 42.9998,
        "meta_ra_of_asc_node": 211.1094,
        "meta_arg_of_pericenter": 264.8968,
        "meta_mean_anomaly": 156.2857,
        "meta_ephemeris_type": 0,
        "meta_classification_type": "U",
        "meta_norad_cat_id": 66611,
        "meta_element_set_no": 999,
        "meta_rev_at_epoch": 400,
        "meta_bstar": -0.031905861,
        "meta_mean_motion_dot": -0.02002634,
        "meta_mean_motion_ddot": 0,
        "tle_line1": "1 66611U 25270Z   25343.58335648 -.02002634  00000+0 -31906-1 0  9993",
        "tle_line2": "2 66611  42.9998 211.1094 0001685 264.8968 156.2857 15.55507426  4002"
      },
      "geometry": {
        "type": "Point",
        "coordinates": [
          -10.818093119963542,
          31.29525543610335
        ]
      }
    },
    {
      "type": "Feature",
      "properties": {
        "norad_id": 66612,
        "name": "STARLINK-36039",
        "group": "last-30-days",
        "lat": 30.289294963654108,
        "lon": -8.919661862052155,
        "alt_km": 399.2167421733193,
        "timestamp": "2025-12-09T18:55:16.023208+00:00",
        "meta_object_name": "STARLINK-36039",
        "meta_object_id": "2025-270AA",
        "meta_epoch": "2025-12-09T14:00:01.999872",
        "meta_mean_motion": 15.55504545,
        "meta_eccentricity": 0.00016351,
        "meta_inclination": 42.9999,
        "meta_ra_of_asc_node": 211.1042,
        "meta_arg_of_pericenter": 264.978,
        "meta_mean_anomaly": 158.1239,
        "meta_ephemeris_type": 0,
        "meta_classification_type": "U",
        "meta_norad_cat_id": 66612,
        "meta_element_set_no": 999,
        "meta_rev_at_epoch": 389,
        "meta_bstar": -0.031861462,
        "meta_mean_motion_dot": -0.01999914,
        "meta_mean_motion_ddot": 0,
        "tle_line1": "1 66612U 25270AA  25343.58335648 -.01999914  00000+0 -31861-1 0  9999",
        "tle_line2": "2 66612  42.9999 211.1042 0001635 264.9780 158.1239 15.55504545  3895"
      },
      "geometry": {
        "type": "Point",
        "coordinates": [
          -8.919661862052155,
          30.289294963654108
        ]
      }
    },
    {
      "type": "Feature",
      "properties": {
        "norad_id": 66613,
        "name": "STARLINK-36037",
        "group": "last-30-days",
        "lat": 29.25677672951286,
        "lon": -7.06090651004076,
        "alt_km": 399.41908994661935,
        "timestamp": "2025-12-09T18:55:16.023251+00:00",
        "meta_object_name": "STARLINK-36037",
        "meta_object_id": "2025-270AB",
        "meta_epoch": "2025-12-09T14:00:01.999872",
        "meta_mean_motion": 15.55505564,
        "meta_eccentricity": 0.00016816,
        "meta_inclination": 42.9997,
        "meta_ra_of_asc_node": 211.0997,
        "meta_arg_of_pericenter": 267.6646,
        "meta_mean_anomaly": 157.3535,
        "meta_ephemeris_type": 0,
        "meta_classification_type": "U",
        "meta_norad_cat_id": 66613,
        "meta_element_set_no": 999,
        "meta_rev_at_epoch": 389,
        "meta_bstar": -0.031875312,
        "meta_mean_motion_dot": -0.0200079,
        "meta_mean_motion_ddot": 0,
        "tle_line1": "1 66613U 25270AB  25343.58335648 -.02000790  00000+0 -31875-1 0  9991",
        "tle_line2": "2 66613  42.9997 211.0997 0001681 267.6646 157.3535 15.55505564  3896"
      },
      "geometry": {
        "type": "Point",
        "coordinates": [
          -7.06090651004076,
          29.25677672951286
        ]
      }
    },
    {
      "type": "Feature",
      "properties": {
        "norad_id": 66614,
        "name": "STARLINK-36040",
        "group": "last-30-days",
        "lat": 27.11798292277235,
        "lon": -3.4565779222485755,
        "alt_km": 399.627190647966,
        "timestamp": "2025-12-09T18:55:16.023266+00:00",
        "meta_object_name": "STARLINK-36040",
        "meta_object_id": "2025-270AC",
        "meta_epoch": "2025-12-09T14:00:01.999872",
        "meta_mean_motion": 15.55511611,
        "meta_eccentricity": 0.00016378,
        "meta_inclination": 42.9994,
        "meta_ra_of_asc_node": 211.0899,
        "meta_arg_of_pericenter": 264.7055,
        "meta_mean_anomaly": 164.1434,
        "meta_ephemeris_type": 0,
        "meta_classification_type": "U",
        "meta_norad_cat_id": 66614,
        "meta_element_set_no": 999,
        "meta_rev_at_epoch": 373,
        "meta_bstar": -0.032012925,
        "meta_mean_motion_dot": -0.020089,
        "meta_mean_motion_ddot": 0,
        "tle_line1": "1 66614U 25270AC  25343.58335648 -.02008900  00000+0 -32013-1 0  9998",
        "tle_line2": "2 66614  42.9994 211.0899 0001637 264.7055 164.1434 15.55511611  3735"
      },
      "geometry": {
        "type": "Point",
        "coordinates": [
          -3.4565779222485755,
          27.11798292277235
        ]
      }
    },
    {
      "type": "Feature",
      "properties": {
        "norad_id": 66615,
        "name": "STARLINK-35988",
        "group": "last-30-days",
        "lat": 28.200140379706447,
        "lon": -5.241948325625805,
        "alt_km": 399.5069877185151,
        "timestamp": "2025-12-09T18:55:16.023276+00:00",
        "meta_object_name": "STARLINK-35988",
        "meta_object_id": "2025-270AD",
        "meta_epoch": "2025-12-09T14:00:01.999872",
        "meta_mean_motion": 15.555103,
        "meta_eccentricity": 0.00017261,
        "meta_inclination": 42.9995,
        "meta_ra_of_asc_node": 211.0951,
        "meta_arg_of_pericenter": 263.5403,
        "meta_mean_anomaly": 163.3925,
        "meta_ephemeris_type": 0,
        "meta_classification_type": "U",
        "meta_norad_cat_id": 66615,
        "meta_element_set_no": 999,
        "meta_rev_at_epoch": 373,
        "meta_bstar": -0.032034903,
        "meta_mean_motion_dot": -0.02010102,
        "meta_mean_motion_ddot": 0,
        "tle_line1": "1 66615U 25270AD  25343.58335648 -.02010102  00000+0 -32035-1 0  9990",
        "tle_line2": "2 66615  42.9995 211.0951 0001726 263.5403 163.3925 15.55510300  3739"
      },
      "geometry": {
        "type": "Point",
        "coordinates": [
          -5.241948325625805,
          28.200140379706447
        ]
      }
    },
    {
      "type": "Feature",
      "properties": {
        "norad_id": 66616,
        "name": "STARLINK-35391",
        "group": "last-30-days",
        "lat": 26.013905410063828,
        "lon": -1.7051626380742588,
        "alt_km": 399.80846458933047,
        "timestamp": "2025-12-09T18:55:16.023290+00:00",
        "meta_object_name": "STARLINK-35391",
        "meta_object_id": "2025-270AE",
        "meta_epoch": "2025-12-09T14:00:01.999872",
        "meta_mean_motion": 15.55514004,
        "meta_eccentricity": 0.00016136,
        "meta_inclination": 42.9998,
        "meta_ra_of_asc_node": 211.0853,
        "meta_arg_of_pericenter": 267.2078,
        "meta_mean_anomaly": 163.5578,
        "meta_ephemeris_type": 0,
        "meta_classification_type": "U",
        "meta_norad_cat_id": 66616,
        "meta_element_set_no": 999,
        "meta_rev_at_epoch": 400,
        "meta_bstar": -0.032100559,
        "meta_mean_motion_dot": -0.02013965,
        "meta_mean_motion_ddot": 0,
        "tle_line1": "1 66616U 25270AE  25343.58335648 -.02013965  00000+0 -32101-1 0  9995",
        "tle_line2": "2 66616  42.9998 211.0853 0001613 267.2078 163.5578 15.55514004  4000"
      },
      "geometry": {
        "type": "Point",
        "coordinates": [
          -1.7051626380742588,
          26.013905410063828
        ]
      }
    },
    {
      "type": "Feature",
      "properties": {
        "norad_id": 66617,
        "name": "STARLINK-35940",
        "group": "last-30-days",
        "lat": 51.10474467510587,
        "lon": -46.83901544048847,
        "alt_km": 372.03550317369445,
        "timestamp": "2025-12-09T18:55:16.023303+00:00",
        "meta_object_name": "STARLINK-35940",
        "meta_object_id": "2025-271A",
        "meta_epoch": "2025-12-09T14:00:01.999872",
        "meta_mean_motion": 15.63698406,
        "meta_eccentricity": 8.174e-05,
        "meta_inclination": 53.1592,
        "meta_ra_of_asc_node": 202.4931,
        "meta_arg_of_pericenter": 109.5202,
        "meta_mean_anomaly": 279.3967,
        "meta_ephemeris_type": 0,
        "meta_classification_type": "U",
        "meta_norad_cat_id": 66617,
        "meta_element_set_no": 999,
        "meta_rev_at_epoch": 373,
        "meta_bstar": -0.023671568,
        "meta_mean_motion_dot": -0.01980492,
        "meta_mean_motion_ddot": 0,
        "tle_line1": "1 66617U 25271A   25343.58335648 -.01980492  00000+0 -23672-1 0  9997",
        "tle_line2": "2 66617  53.1592 202.4931 0000817 109.5202 279.3967 15.63698406  3733"
      },
      "geometry": {
        "type": "Point",
        "coordinates": [
          -46.83901544048847,
          51.10474467510587
        ]
      }
    }
  ]
}